{"type":"FeatureCollection","features":[{"type":"Feature","properties":{"phase":"seguimiento","entity_key":"http://demo/resource/poi-demo","entity_name":"poi-demo","entity_type":"poi_point","category":"core#Museum","name":"poi-demo","class":"core#Museum","score":null,"razon":"demo","lat":40.2,"lon":-3.7,"has_coordinates":true,"coord_source":"flat_fields","dti":"destino-demo","dti_norm":"destino-demo","uri":"http://demo/resource/poi-demo","range2_out":true,"destino_nombre":"Destino Demo","destino_nombre_norm":"destino-demo","destino_entidad_gestora":"Entidad Demo","destino_cif_entidad_gestora":"D0000000D","destino_comunidad_autonoma":"Comunidad Demo","destino_provincia":"Provincia Demo","destino_match":"matched","codigo_ine":"00000000000","nombre_municipio":"Municipio Demo","codigo_provincia":"99","nombre_provincia":"Provincia Demo","codigo_ccaa":"99","nombre_ccaa":"Comunidad Demo","match_status_geo":"matched"},"geometry":{"type":"Point","coordinates":[-3.7,40.2]}}]}
